NORAD_CAT_ID,OBJECT_NAME,OBJECT_TYPE,EPOCH,MEAN_MOTION,ECCENTRICITY,INCLINATION,RA_OF_ASC_NODE,ARG_OF_PERICENTER,MEAN_ANOMALY,BSTAR,MEAN_MOTION_DOT,MEAN_MOTION_DDOT,TLE_LINE0,TLE_LINE1,TLE_LINE2,SEMIMAJOR_AXIS,PERIOD,APOGEE,PERIGEE,DECAYED
55766.0,STARLINK-5599,PAYLOAD,2023-04-02 09:07:47,15.69913916,0.000224,70.002,71.9156,261.1334,98.9608,-9.2043e-06,-1.318e-05,0.0,0 STARLINK-5599,1 55766U 23028AB  23092.38041234 -.00001318  00000-0 -92043-5 0  9993,2 55766  70.0020  71.9156 0002240 261.1334  98.9608 15.69913916  5316,6737.28,91.725,360.654,357.636,0.0
55766.0,STARLINK-5599,PAYLOAD,2023-04-02 10:39:32,15.6992184,0.0002336,70.0014,71.7358,283.019,77.0745,8.945e-06,8.63e-06,0.0,0 STARLINK-5599,1 55766U 23028AB  23092.44412619  .00000863  00000-0  89450-5 0  9999,2 55766  70.0014  71.7358 0002336 283.0190  77.0745 15.69921840  5337,6737.258,91.724,360.696,357.549,0.0
55766.0,STARLINK-5599,PAYLOAD,2023-04-03 01:57:03,15.69926163,0.0002865,70.0022,69.9442,250.9039,109.1847,2.787e-05,3.14e-05,0.0,0 STARLINK-5599,1 55766U 23028AB  23093.08129182  .00003140  00000-0  27870-4 0  9998,2 55766  70.0022  69.9442 0002865 250.9039 109.1847 15.69926163  5424,6737.245,91.724,361.04,357.18,0.0
55766.0,STARLINK-5599,PAYLOAD,2023-04-03 08:04:04,15.69909722,0.0002504,70.0022,69.2269,269.8212,90.2697,-1.3827e-05,-1.873e-05,0.0,0 STARLINK-5599,1 55766U 23028AB  23093.33616663 -.00001873  00000-0 -13827-4 0  9991,2 55766  70.0022  69.2269 0002504 269.8212  90.2697 15.69909722  5465,6737.292,91.725,360.844,357.47,0.0
55766.0,STARLINK-5599,PAYLOAD,2023-04-04 00:53:20,15.69929828,0.0003364,70.0007,67.2546,261.9113,98.1701,1.0318e-05,1.028e-05,0.0,0 STARLINK-5599,1 55766U 23028AB  23094.03703970  .00001028  00000-0  10318-4 0  9999,2 55766  70.0007  67.2546 0003364 261.9113  98.1701 15.69929828  5576,6737.235,91.724,361.366,356.833,0.0
55766.0,STARLINK-5599,PAYLOAD,2023-04-04 08:32:05,15.69932764,0.00031,70.0022,66.3624,263.4244,96.6599,3.2697e-05,3.722e-05,0.0,0 STARLINK-5599,1 55766U 23028AB  23094.35562426  .00003722  00000-0  32697-4 0  9990,2 55766  70.0022  66.3624 0003100 263.4244  96.6599 15.69932764  5638,6737.226,91.724,361.18,357.003,0.0
55766.0,STARLINK-5599,PAYLOAD,2023-04-05 01:21:22,15.69924302,0.0002883,70.0019,64.3905,257.7687,102.3186,3.8071e-06,2.45e-06,0.0,0 STARLINK-5599,1 55766U 23028AB  23095.05651053  .00000245  00000-0  38071-5 0  9993,2 55766  70.0019  64.3905 0002883 257.7687 102.3186 15.69924302  5735,6737.251,91.724,361.058,357.173,0.0
55766.0,STARLINK-5599,PAYLOAD,2023-04-05 10:31:52,15.6993579,0.0002994,70.0003,63.3139,263.4278,96.6577,3.6428e-05,4.172e-05,0.0,0 STARLINK-5599,1 55766U 23028AB  23095.43880775  .00004172  00000-0  36428-4 0  9996,2 55766  70.0003  63.3139 0002994 263.4278  96.6577 15.69935790  5809,6737.218,91.723,361.1,357.066,0.0
55766.0,STARLINK-5599,PAYLOAD,2023-04-06 00:17:39,15.69919994,0.000357,70.0024,61.7039,272.9646,87.1142,2.5486e-06,9.4e-07,0.0,0 STARLINK-5599,1 55766U 23028AB  23096.01226274  .00000094  00000-0  25486-5 0  9991,2 55766  70.0024  61.7039 0003570 272.9646  87.1142 15.69919994  5887,6737.263,91.724,361.533,356.723,0.0
55766.0,STARLINK-5599,PAYLOAD,2023-04-06 09:28:10,15.69913136,0.0002647,70.0024,60.6271,264.7963,95.2931,-1.9427e-05,-2.546e-05,0.0,0 STARLINK-5599,1 55766U 23028AB  23096.39456582 -.00002546  00000-0 -19427-4 0  9992,2 55766  70.0024  60.6271 0002647 264.7963  95.2931 15.69913136  5954,6737.283,91.725,360.931,357.364,0.0
55766.0,STARLINK-5599,PAYLOAD,2023-04-06 21:42:11,15.69919002,0.0003519,70.0011,59.193,261.551,98.5287,-8.7903e-06,-1.269e-05,0.0,0 STARLINK-5599,1 55766U 23028AB  23096.90429624 -.00001269  00000-0 -87903-5 0  9992,2 55766  70.0011  59.1930 0003519 261.5510  98.5287 15.69919002  6035,6737.266,91.724,361.502,356.76,0.0
55766.0,STARLINK-5599,PAYLOAD,2023-04-07 00:45:41,15.69921703,0.0003403,70.0011,58.8347,263.9302,96.1506,4.5075e-06,3.29e-06,0.0,0 STARLINK-5599,1 55766U 23028AB  23097.03172997  .00000329  00000-0  45075-5 0  9993,2 55766  70.0011  58.8347 0003403 263.9302  96.1506 15.69921703  6040,6737.258,91.724,361.416,356.83,0.0
55766.0,STARLINK-5599,PAYLOAD,2023-04-07 06:52:41,15.69938269,0.0003417,70.0005,58.1188,264.7676,95.3129,8.2025e-05,9.667e-05,0.0,0 STARLINK-5599,1 55766U 23028AB  23097.28659395  .00009667  00000-0  82025-4 0  9991,2 55766  70.0005  58.1188 0003417 264.7676  95.3129 15.69938269  6088,6737.211,91.723,361.378,356.774,0.0
55766.0,STARLINK-5599,PAYLOAD,2023-04-07 23:41:58,15.69921963,0.0003053,70.0007,56.1468,260.4655,99.6196,1.5321e-05,1.63e-05,0.0,0 STARLINK-5599,1 55766U 23028AB  23097.98748135  .00001630  00000-0  15321-4 0  9996,2 55766  70.0007  56.1468 0003053 260.4655  99.6196 15.69921963  6191,6737.257,91.724,361.179,357.065,0.0
55766.0,STARLINK-5599,PAYLOAD,2023-04-08 08:52:29,15.69922426,0.0003383,70.0008,55.0747,264.3445,95.7365,-7.7863e-07,-3.06e-06,0.0,0 STARLINK-5599,1 55766U 23028AB  23098.36978230 -.00000306  00000-0 -77863-6 0  9992,2 55766  70.0008  55.0747 0003383 264.3445  95.7365 15.69922426  6264,6737.256,91.724,361.4,356.842,0.0
55766.0,STARLINK-5599,PAYLOAD,2023-04-09 03:13:30,15.69929397,0.0003491,70.0005,52.9249,265.0976,94.9821,1.1498e-05,1.17e-05,0.0,0 STARLINK-5599,1 55766U 23028AB  23099.13437836  .00001170  00000-0  11498-4 0  9998,2 55766  70.0005  52.9249 0003491 265.0976  94.9821 15.69929397  6375,6737.236,91.724,361.453,356.749,0.0
55766.0,STARLINK-5599,PAYLOAD,2023-04-09 06:17:00,15.69928299,0.0003538,70.0001,52.5655,265.6912,94.3879,1.0419e-05,1.04e-05,0.0,0 STARLINK-5599,1 55766U 23028AB  23099.26181177  .00001040  00000-0  10419-4 0  9994,2 55766  70.0001  52.5655 0003538 265.6912  94.3879 15.69928299  6407,6737.239,91.724,361.488,356.72,0.0
55766.0,STARLINK-5599,PAYLOAD,2023-04-09 23:06:17,15.69917898,0.0003589,70.0004,50.5947,267.8777,92.2008,8.769e-07,-1.07e-06,0.0,0 STARLINK-5599,1 55766U 23028AB  23099.96270138 -.00000107  00000-0  87690-6 0  9998,2 55766  70.0004  50.5947 0003589 267.8777  92.2008 15.69917898  6506,6737.269,91.725,361.552,356.716,0.0
55766.0,STARLINK-5599,PAYLOAD,2023-04-10 08:16:48,15.69920253,0.0003269,69.9987,49.5207,269.0849,90.9972,4.3608e-06,3.12e-06,0.0,0 STARLINK-5599,1 55766U 23028AB  23100.34500417  .00000312  00000-0  43608-5 0  9996,2 55766  69.9987  49.5207 0003269 269.0849  90.9972 15.69920253  6570,6737.262,91.724,361.33,356.925,0.0
55766.0,STARLINK-5599,PAYLOAD,2023-04-10 20:30:48,15.69928397,0.0003564,69.9983,48.0861,267.0285,93.0503,2.1768e-06,4.9e-07,0.0,0 STARLINK-5599,1 55766U 23028AB  23100.85473043  .00000049  00000-0  21768-5 0  9996,2 55766  69.9983  48.0861 0003564 267.0285  93.0503 15.69928397  6645,6737.239,91.724,361.505,356.703,0.0
55766.0,STARLINK-5599,PAYLOAD,2023-04-11 04:09:34,15.69923975,0.0003623,69.9986,47.1921,268.7396,91.3384,6.3861e-06,5.55e-06,0.0,0 STARLINK-5599,1 55766U 23028AB  23101.17331579  .00000555  00000-0  63861-5 0  9991,2 55766  69.9986  47.1921 0003623 268.7396  91.3384 15.69923975  6704,6737.252,91.724,361.557,356.676,0.0
55766.0,STARLINK-5599,PAYLOAD,2023-04-11 19:27:06,15.69922609,0.0003217,69.9992,45.4016,264.1153,95.9676,5.3782e-07,-1.48e-06,0.0,0 STARLINK-5599,1 55766U 23028AB  23101.81048739 -.00000148  00000-0  53782-6 0  9996,2 55766  69.9992  45.4016 0003217 264.1153  95.9676 15.69922609  6805,6737.255,91.724,361.288,356.953,0.0
55766.0,STARLINK-5599,PAYLOAD,2023-04-12 04:37:36,15.69921586,0.0002783,70.001,44.3282,256.935,103.1535,1.8251e-06,7e-08,0.0,0 STARLINK-5599,1 55766U 23028AB  23102.19278800  .00000007  00000-0  18251-5 0  9996,2 55766  70.0010  44.3282 0002783 256.9350 103.1535 15.69921586  6851,6737.258,91.724,360.998,357.248,0.0
55766.0,STARLINK-5599,PAYLOAD,2023-04-12 13:48:07,15.69922595,0.0003421,69.9993,43.2512,266.8894,93.191,9.9326e-06,9.82e-06,0.0,0 STARLINK-5599,1 55766U 23028AB  23102.57508450  .00000982  00000-0  99326-5 0  9999,2 55766  69.9993  43.2512 0003421 266.8894  93.1910 15.69922595  6929,6737.255,91.724,361.425,356.816,0.0
55766.0,STARLINK-5599,PAYLOAD,2023-04-13 05:05:38,15.69921942,0.0003317,69.9995,41.4588,264.7141,95.3676,9.7597e-06,9.61e-06,0.0,0 STARLINK-5599,1 55766U 23028AB  23103.21225262  .00000961  00000-0  97597-5 0  9993,2 55766  69.9995  41.4588 0003317 264.7141  95.3676 15.69921942  7020,6737.257,91.724,361.357,356.888,0.0
55766.0,STARLINK-5599,PAYLOAD,2023-04-14 02:30:10,15.69931548,0.0003312,69.9999,38.9552,260.7352,99.347,-4.326e-06,-7.33e-06,0.0,0 STARLINK-5599,1 55766U 23028AB  23104.10428345 -.00000733  00000-0 -43260-5 0  9996,2 55766  69.9999  38.9552 0003312 260.7352  99.3470 15.69931548  7154,6737.23,91.724,361.326,356.863,0.0
55766.0,STARLINK-5599,PAYLOAD,2023-04-14 05:33:39,15.69938577,0.0003213,69.9994,38.5933,263.6239,96.4591,-6.8749e-07,-2.95e-06,0.0,0 STARLINK-5599,1 55766U 23028AB  23104.23171152 -.00000295  00000-0 -68749-6 0  9994,2 55766  69.9994  38.5933 0003213 263.6239  96.4591 15.69938577  7188,6737.21,91.723,361.239,356.91,0.0
55766.0,STARLINK-5599,PAYLOAD,2023-04-15 04:29:57,15.69926692,0.000372,69.9985,35.908,271.6103,88.4666,1.9371e-05,2.117e-05,0.0,0 STARLINK-5599,1 55766U 23028AB  23105.18746622  .00002117  00000-0  19371-4 0  9997,2 55766  69.9985  35.9080 0003720 271.6103  88.4666 15.69926692  7330,6737.244,91.724,361.615,356.602,0.0
55766.0,STARLINK-5599,PAYLOAD,2023-04-15 21:19:14,15.69917588,0.0003455,70.0,33.9363,260.3501,99.7304,1.0373e-05,1.034e-05,0.0,0 STARLINK-5599,1 55766U 23028AB  23105.88835856  .00001034  00000-0  10373-4 0  9992,2 55766  70.0000  33.9363 0003455 260.3501  99.7304 15.69917588  7445,6737.27,91.725,361.463,356.807,0.0
55766.0,STARLINK-5599,PAYLOAD,2023-04-16 04:58:01,15.69902559,0.0002886,69.9996,33.0401,266.8874,93.1991,-2.7089e-05,-3.465e-05,0.0,0 STARLINK-5599,1 55766U 23028AB  23106.20695875 -.00003465  00000-0 -27089-4 0  9998,2 55766  69.9996  33.0401 0002886 266.8874  93.1991 15.69902559  7498,6737.313,91.725,361.122,357.233,0.0
